DELTA 2 R/B(1)          
1 20453U 90008B   26041.26353382  .00066828  00000+0  87954-3 0  9991
2 20453  35.6055 354.3158 0093532   2.5651 357.5548 15.52162436921868
COSMOS 2058             
1 20465U 90010A   26041.56627331  .00004337  00000+0  25721-3 0  9999
2 20465  82.4645  74.1481 0011879  72.7958 287.4571 15.11068318938140
SL-14 R/B               
1 20466U 90010B   26041.64062382  .00000480  00000+0  55259-4 0  9993
2 20466  82.5024 292.7981 0020679  32.8612 327.3884 14.83545288924474
SL-14 R/B               
1 20511U 90018B   26041.63233834  .00000439  00000+0  52184-4 0  9991
2 20511  82.5181 248.3856 0016383 176.1250 184.0094 14.82115960918578
HST                     
1 20580U 90037B   26041.72948368  .00007860  00000+0  26288-3 0  9993
2 20580  28.4663 223.8540 0001676 163.3503 196.7148 15.29047837769184
SL-16 R/B               
1 20625U 90046B   26041.90501456  .00000282  00000+0  17000-3 0  9999
2 20625  71.0007 354.1635 0014830 337.0158  23.0299 14.15007390844609
COSMOS 2084             
1 20663U 90055A   26041.35748653  .00002667  00000+0  19787-3 0  9995
2 20663  62.7895  68.7853 0021462 184.2244 175.8679 15.05471746932202
SL-6 R/B(2)             
1 20666U 90055D   26041.90176766  .00002853  00000+0  22208-3 0  9998
2 20666  62.7847 344.9369 0020724 339.5832  20.4436 15.03454605934167
SL-8 R/B                
1 20775U 90078B   26041.68816010  .00014370  00000+0  42281-3 0  9992
2 20775  82.9022 275.5761 0366859 104.4683 259.7532 14.88165359805288
SL-8 R/B                
1 21088U 91006B   26041.90422199  .00000037  00000+0  21089-4 0  9997
2 21088  82.9437 189.9593 0023706 109.5897   2.0470 13.77492152760383
OKEAN-3                 
1 21397U 91039A   26041.94589478  .00003814  00000+0  26910-3 0  9997
2 21397  82.5175   2.7437 0016494  64.8528 295.4407 15.04589052861018
COSMOS 2151             
1 21422U 91042A   26041.93415148  .00002146  00000+0  17018-3 0  9997
2 21422  82.4962 109.4864 0013435 144.6269 215.5849 15.00002602859185
