CCSDS_OMM_VERS = 2.0
CREATION_DATE  = 
ORIGINATOR     = 

OBJECT_NAME    = DELTA 2 R/B(1)
OBJECT_ID      = 1990-008B
CENTER_NAME    = EARTH
REF_FRAME      = TEME
TIME_SYSTEM    = UTC
MEAN_ELEMENT_THEORY = SGP/SGP4

EPOCH          = 2026-02-10T06:19:29.322048
MEAN_MOTION    = 15.52162436
ECCENTRICITY   = .0093532
INCLINATION    = 35.6055
RA_OF_ASC_NODE = 354.3158
ARG_OF_PERICENTER = 2.5651
MEAN_ANOMALY   = 357.5548

EPHEMERIS_TYPE = 0
CLASSIFICATION_TYPE = U
NORAD_CAT_ID   = 20453
ELEMENT_SET_NO = 999
REV_AT_EPOCH   = 92186
BSTAR          = .87954E-3
MEAN_MOTION_DOT = .66828E-3
MEAN_MOTION_DDOT = 0

CCSDS_OMM_VERS = 2.0
CREATION_DATE  = 
ORIGINATOR     = 

OBJECT_NAME    = COSMOS 2058
OBJECT_ID      = 1990-010A
CENTER_NAME    = EARTH
REF_FRAME      = TEME
TIME_SYSTEM    = UTC
MEAN_ELEMENT_THEORY = SGP/SGP4

EPOCH          = 2026-02-10T13:35:26.013984
MEAN_MOTION    = 15.11068318
ECCENTRICITY   = .00118793
INCLINATION    = 82.4645
RA_OF_ASC_NODE = 74.1481
ARG_OF_PERICENTER = 72.7958
MEAN_ANOMALY   = 287.4571

EPHEMERIS_TYPE = 0
CLASSIFICATION_TYPE = U
NORAD_CAT_ID   = 20465
ELEMENT_SET_NO = 999
REV_AT_EPOCH   = 93814
BSTAR          = .25720653E-3
MEAN_MOTION_DOT = .4337E-4
MEAN_MOTION_DDOT = 0

CCSDS_OMM_VERS = 2.0
CREATION_DATE  = 
ORIGINATOR     = 

OBJECT_NAME    = SL-14 R/B
OBJECT_ID      = 1990-010B
CENTER_NAME    = EARTH
REF_FRAME      = TEME
TIME_SYSTEM    = UTC
MEAN_ELEMENT_THEORY = SGP/SGP4

EPOCH          = 2026-02-10T15:22:29.898048
MEAN_MOTION    = 14.83545288
ECCENTRICITY   = .00206794
INCLINATION    = 82.5024
RA_OF_ASC_NODE = 292.7981
ARG_OF_PERICENTER = 32.8612
MEAN_ANOMALY   = 327.3884

EPHEMERIS_TYPE = 0
CLASSIFICATION_TYPE = U
NORAD_CAT_ID   = 20466
ELEMENT_SET_NO = 999
REV_AT_EPOCH   = 92447
BSTAR          = .55258775E-4
MEAN_MOTION_DOT = .48E-5
MEAN_MOTION_DDOT = 0

CCSDS_OMM_VERS = 2.0
CREATION_DATE  = 
ORIGINATOR     = 

OBJECT_NAME    = SL-14 R/B
OBJECT_ID      = 1990-018B
CENTER_NAME    = EARTH
REF_FRAME      = TEME
TIME_SYSTEM    = UTC
MEAN_ELEMENT_THEORY = SGP/SGP4

EPOCH          = 2026-02-10T15:10:34.032576
MEAN_MOTION    = 14.82115960
ECCENTRICITY   = .00163833
INCLINATION    = 82.5181
RA_OF_ASC_NODE = 248.3856
ARG_OF_PERICENTER = 176.1250
MEAN_ANOMALY   = 184.0094

EPHEMERIS_TYPE = 0
CLASSIFICATION_TYPE = U
NORAD_CAT_ID   = 20511
ELEMENT_SET_NO = 999
REV_AT_EPOCH   = 91857
BSTAR          = .52183514E-4
MEAN_MOTION_DOT = .439E-5
MEAN_MOTION_DDOT = 0

CCSDS_OMM_VERS = 2.0
CREATION_DATE  = 
ORIGINATOR     = 

OBJECT_NAME    = HST
OBJECT_ID      = 1990-037B
CENTER_NAME    = EARTH
REF_FRAME      = TEME
TIME_SYSTEM    = UTC
MEAN_ELEMENT_THEORY = SGP/SGP4

EPOCH          = 2026-02-10T17:30:27.389952
MEAN_MOTION    = 15.29047837
ECCENTRICITY   = .00016766
INCLINATION    = 28.4663
RA_OF_ASC_NODE = 223.8540
ARG_OF_PERICENTER = 163.3503
MEAN_ANOMALY   = 196.7148

EPHEMERIS_TYPE = 0
CLASSIFICATION_TYPE = U
NORAD_CAT_ID   = 20580
ELEMENT_SET_NO = 999
REV_AT_EPOCH   = 76918
BSTAR          = .26287789E-3
MEAN_MOTION_DOT = .786E-4
MEAN_MOTION_DDOT = 0

CCSDS_OMM_VERS = 2.0
CREATION_DATE  = 
ORIGINATOR     = 

OBJECT_NAME    = SL-16 R/B
OBJECT_ID      = 1990-046B
CENTER_NAME    = EARTH
REF_FRAME      = TEME
TIME_SYSTEM    = UTC
MEAN_ELEMENT_THEORY = SGP/SGP4

EPOCH          = 2026-02-10T21:43:13.257984
MEAN_MOTION    = 14.15007390
ECCENTRICITY   = .00148301
INCLINATION    = 71.0007
RA_OF_ASC_NODE = 354.1635
ARG_OF_PERICENTER = 337.0158
MEAN_ANOMALY   = 23.0299

EPHEMERIS_TYPE = 0
CLASSIFICATION_TYPE = U
NORAD_CAT_ID   = 20625
ELEMENT_SET_NO = 999
REV_AT_EPOCH   = 84460
BSTAR          = .17000246E-3
MEAN_MOTION_DOT = .282E-5
MEAN_MOTION_DDOT = 0

CCSDS_OMM_VERS = 2.0
CREATION_DATE  = 
ORIGINATOR     = 

OBJECT_NAME    = COSMOS 2084
OBJECT_ID      = 1990-055A
CENTER_NAME    = EARTH
REF_FRAME      = TEME
TIME_SYSTEM    = UTC
MEAN_ELEMENT_THEORY = SGP/SGP4

EPOCH          = 2026-02-10T08:34:46.836192
MEAN_MOTION    = 15.05471746
ECCENTRICITY   = .00214625
INCLINATION    = 62.7895
RA_OF_ASC_NODE = 68.7853
ARG_OF_PERICENTER = 184.2244
MEAN_ANOMALY   = 175.8679

EPHEMERIS_TYPE = 0
CLASSIFICATION_TYPE = U
NORAD_CAT_ID   = 20663
ELEMENT_SET_NO = 999
REV_AT_EPOCH   = 93220
BSTAR          = .1978655E-3
MEAN_MOTION_DOT = .2667E-4
MEAN_MOTION_DDOT = 0

CCSDS_OMM_VERS = 2.0
CREATION_DATE  = 
ORIGINATOR     = 

OBJECT_NAME    = SL-6 R/B(2)
OBJECT_ID      = 1990-055D
CENTER_NAME    = EARTH
REF_FRAME      = TEME
TIME_SYSTEM    = UTC
MEAN_ELEMENT_THEORY = SGP/SGP4

EPOCH          = 2026-02-10T21:38:32.725824
MEAN_MOTION    = 15.03454605
ECCENTRICITY   = .0020724
INCLINATION    = 62.7847
RA_OF_ASC_NODE = 344.9369
ARG_OF_PERICENTER = 339.5832
MEAN_ANOMALY   = 20.4436

EPHEMERIS_TYPE = 0
CLASSIFICATION_TYPE = U
NORAD_CAT_ID   = 20666
ELEMENT_SET_NO = 999
REV_AT_EPOCH   = 93416
BSTAR          = .22207899E-3
MEAN_MOTION_DOT = .2853E-4
MEAN_MOTION_DDOT = 0

CCSDS_OMM_VERS = 2.0
CREATION_DATE  = 
ORIGINATOR     = 

OBJECT_NAME    = SL-8 R/B
OBJECT_ID      = 1990-078B
CENTER_NAME    = EARTH
REF_FRAME      = TEME
TIME_SYSTEM    = UTC
MEAN_ELEMENT_THEORY = SGP/SGP4

EPOCH          = 2026-02-10T16:30:57.032640
MEAN_MOTION    = 14.88165359
ECCENTRICITY   = .03668595
INCLINATION    = 82.9022
RA_OF_ASC_NODE = 275.5761
ARG_OF_PERICENTER = 104.4683
MEAN_ANOMALY   = 259.7532

EPHEMERIS_TYPE = 0
CLASSIFICATION_TYPE = U
NORAD_CAT_ID   = 20775
ELEMENT_SET_NO = 999
REV_AT_EPOCH   = 80528
BSTAR          = .4228078E-3
MEAN_MOTION_DOT = .1437E-3
MEAN_MOTION_DDOT = 0

CCSDS_OMM_VERS = 2.0
CREATION_DATE  = 
ORIGINATOR     = 

OBJECT_NAME    = SL-8 R/B
OBJECT_ID      = 1991-006B
CENTER_NAME    = EARTH
REF_FRAME      = TEME
TIME_SYSTEM    = UTC
MEAN_ELEMENT_THEORY = SGP/SGP4

EPOCH          = 2026-02-10T21:42:04.779936
MEAN_MOTION    = 13.77492152
ECCENTRICITY   = .00237069
INCLINATION    = 82.9437
RA_OF_ASC_NODE = 189.9593
ARG_OF_PERICENTER = 109.5897
MEAN_ANOMALY   = 2.0470

EPHEMERIS_TYPE = 0
CLASSIFICATION_TYPE = U
NORAD_CAT_ID   = 21088
ELEMENT_SET_NO = 999
REV_AT_EPOCH   = 76038
BSTAR          = .2108946E-4
MEAN_MOTION_DOT = .37E-6
MEAN_MOTION_DDOT = 0

CCSDS_OMM_VERS = 2.0
CREATION_DATE  = 
ORIGINATOR     = 

OBJECT_NAME    = OKEAN-3
OBJECT_ID      = 1991-039A
CENTER_NAME    = EARTH
REF_FRAME      = TEME
TIME_SYSTEM    = UTC
MEAN_ELEMENT_THEORY = SGP/SGP4

EPOCH          = 2026-02-10T22:42:05.308992
MEAN_MOTION    = 15.04589052
ECCENTRICITY   = .0016494
INCLINATION    = 82.5175
RA_OF_ASC_NODE = 2.7437
ARG_OF_PERICENTER = 64.8528
MEAN_ANOMALY   = 295.4407

EPHEMERIS_TYPE = 0
CLASSIFICATION_TYPE = U
NORAD_CAT_ID   = 21397
ELEMENT_SET_NO = 999
REV_AT_EPOCH   = 86101
BSTAR          = .26909983E-3
MEAN_MOTION_DOT = .3814E-4
MEAN_MOTION_DDOT = 0

CCSDS_OMM_VERS = 2.0
CREATION_DATE  = 
ORIGINATOR     = 

OBJECT_NAME    = COSMOS 2151
OBJECT_ID      = 1991-042A
CENTER_NAME    = EARTH
REF_FRAME      = TEME
TIME_SYSTEM    = UTC
MEAN_ELEMENT_THEORY = SGP/SGP4

EPOCH          = 2026-02-10T22:25:10.687872
MEAN_MOTION    = 15.00002602
ECCENTRICITY   = .00134355
INCLINATION    = 82.4962
RA_OF_ASC_NODE = 109.4864
ARG_OF_PERICENTER = 144.6269
MEAN_ANOMALY   = 215.5849

EPHEMERIS_TYPE = 0
CLASSIFICATION_TYPE = U
NORAD_CAT_ID   = 21422
ELEMENT_SET_NO = 999
REV_AT_EPOCH   = 85918
BSTAR          = .17017966E-3
MEAN_MOTION_DOT = .2146E-4
MEAN_MOTION_DDOT = 0

